{"type": "FeatureCollection", "features": [ {"type": "Feature", "properties": {"norad_id": 66415, "name": "HULIANWANG DIGUI 13D", "group": "last-30-days", "lat": -33.745792881006146, "lon": -92.38680802769181, "alt_km": 808.0938758910188, "timestamp": "2025-12-03T06:58:42.031615+00:00", "meta": {"OBJECT_NAME": "HULIANWANG DIGUI 13D", "OBJECT_ID": "2025-258D", "EPOCH": "2025-12-02T16:01:54.737760", "MEAN_MOTION": 14.23495801, "ECCENTRICITY": 0.00133351, "INCLINATION": 50.0042, "RA_OF_ASC_NODE": 304.3491, "ARG_OF_PERICENTER": 327.7923, "MEAN_ANOMALY": 32.2174, "EPHEMERIS_TYPE": 0, "CLASSIFICATION_TYPE": "U", "NORAD_CAT_ID": 66415, "ELEMENT_SET_NO": 999, "REV_AT_EPOCH": 322, "BSTAR": 0.00013389716, "MEAN_MOTION_DOT": 1.47e-06, "MEAN_MOTION_DDOT": 0}, "tle": {"line1": "1 66415U 25258D   25336.66799465  .00000147  00000+0  13390-3 0  9995", "line2": "2 66415  50.0042 304.3491 0013335 327.7923  32.2174 14.23495801  3220"}}, "geometry": {"type": "Point", "coordinates": [-92.38680802769181, -33.745792881006146]}}, {"type": "Feature", "properties": {"norad_id": 66416, "name": "HULIANWANG DIGUI 13E", "group": "last-30-days", "lat": -45.33501258584029, "lon": -116.37071411488374, "alt_km": 810.8692076365687, "timestamp": "2025-12-03T06:58:42.031625+00:00", "meta": {"OBJECT_NAME": "HULIANWANG DIGUI 13E", "OBJECT_ID": "2025-258E", "EPOCH": "2025-12-02T04:20:20.565312", "MEAN_MOTION": 14.23468154, "ECCENTRICITY": 0.0012751, "INCLINATION": 50.0045, "RA_OF_ASC_NODE": 306.4445, "ARG_OF_PERICENTER": 327.4493, "MEAN_ANOMALY": 32.5632, "EPHEMERIS_TYPE": 0, "CLASSIFICATION_TYPE": "U", "NORAD_CAT_ID": 66416, "ELEMENT_SET_NO": 999, "REV_AT_EPOCH": 315, "BSTAR": 0.00010445686, "MEAN_MOTION_DOT": 8e-07, "MEAN_MOTION_DDOT": 0}, "tle": {"line1": "1 66416U 25258E   25336.18079358  .00000080  00000+0  10446-3 0  9990", "line2": "2 66416  50.0045 306.4445 0012751 327.4493  32.5632 14.23468154  3151"}}, "geometry": {"type": "Point", "coordinates": [-116.37071411488374, -45.33501258584029]}}, {"type": "Feature", "properties": {"norad_id": 66417, "name": "HULIANWANG DIGUI 13F", "group": "last-30-days", "lat": -42.18316033655715, "lon": -107.80426750851908, "alt_km": 810.1586377684189, "timestamp": "2025-12-03T06:58:42.031636+00:00", "meta": {"OBJECT_NAME": "HULIANWANG DIGUI 13F", "OBJECT_ID": "2025-258F", "EPOCH": "2025-12-02T16:06:02.731680", "MEAN_MOTION": 14.23476506, "ECCENTRICITY": 0.00123452, "INCLINATION": 49.9999, "RA_OF_ASC_NODE": 304.3474, "ARG_OF_PERICENTER": 327.3624, "MEAN_ANOMALY": 32.6525, "EPHEMERIS_TYPE": 0, "CLASSIFICATION_TYPE": "U", "NORAD_CAT_ID": 66417, "ELEMENT_SET_NO": 999, "REV_AT_EPOCH": 322, "BSTAR": 0.00012400114, "MEAN_MOTION_DOT": 1.25e-06, "MEAN_MOTION_DDOT": 0}, "tle": {"line1": "1 66417U 25258F   25336.67086495  .00000125  00000+0  12400-3 0  9997", "line2": "2 66417  49.9999 304.3474 0012345 327.3624  32.6525 14.23476506  3220"}}, "geometry": {"type": "Point", "coordinates": [-107.80426750851908, -42.18316033655715]}}, {"type": "Feature", "properties": {"norad_id": 66418, "name": "HULIANWANG DIGUI 13G", "group": "last-30-days", "lat": -29.317375030403046, "lon": -86.43192438141315, "alt_km": 808.1173373413649, "timestamp": "2025-12-03T06:58:42.031648+00:00", "meta": {"OBJECT_NAME": "HULIANWANG DIGUI 13G", "OBJECT_ID": "2025-258G", "EPOCH": "2025-12-02T14:18:55.535040", "MEAN_MOTION": 14.23487797, "ECCENTRICITY": 0.00124567, "INCLINATION": 50.0007, "RA_OF_ASC_NODE": 304.6223, "ARG_OF_PERICENTER": 323.0492, "MEAN_ANOMALY": 36.9562, "EPHEMERIS_TYPE": 0, "CLASSIFICATION_TYPE": "U", "NORAD_CAT_ID": 66418, "ELEMENT_SET_NO": 999, "REV_AT_EPOCH": 321, "BSTAR": 0.0001355298, "MEAN_MOTION_DOT": 1.51e-06, "MEAN_MOTION_DDOT": 0}, "tle": {"line1": "1 66418U 25258G   25336.59647610  .00000151  00000+0  13553-3 0  9990", "line2": "2 66418  50.0007 304.6223 0012456 323.0492  36.9562 14.23487797  3219"}}, "geometry": {"type": "Point", "coordinates": [-86.43192438141315, -29.317375030403046]}}, {"type": "Feature", "properties": {"norad_id": 66419, "name": "HULIANWANG DIGUI 13H", "group": "last-30-days", "lat": -24.04848139884404, "lon": -80.32152819122496, "alt_km": 807.9297913056507, "timestamp": "2025-12-03T06:58:42.031658+00:00", "meta": {"OBJECT_NAME": "HULIANWANG DIGUI 13H", "OBJECT_ID": "2025-258H", "EPOCH": "2025-12-02T15:57:53.935776", "MEAN_MOTION": 14.2350507, "ECCENTRICITY": 0.00120492, "INCLINATION": 50.0005, "RA_OF_ASC_NODE": 304.3157, "ARG_OF_PERICENTER": 324.2803, "MEAN_ANOMALY": 35.7303, "EPHEMERIS_TYPE": 0, "CLASSIFICATION_TYPE": "U", "NORAD_CAT_ID": 66419, "ELEMENT_SET_NO": 999, "REV_AT_EPOCH": 322, "BSTAR": 0.00013725697, "MEAN_MOTION_DOT": 1.55e-06, "MEAN_MOTION_DDOT": 0}, "tle": {"line1": "1 66419U 25258H   25336.66520759  .00000155  00000+0  13726-3 0  9999", "line2": "2 66419  50.0005 304.3157 0012049 324.2803  35.7303 14.23505070  3224"}}, "geometry": {"type": "Point", "coordinates": [-80.32152819122496, -24.04848139884404]}}, {"type": "Feature", "properties": {"norad_id": 66420, "name": "HULIANWANG DIGUI 13J", "group": "last-30-days", "lat": -19.753484506900026, "lon": -75.86506855584577, "alt_km": 808.1175245333661, "timestamp": "2025-12-03T06:58:42.031670+00:00", "meta": {"OBJECT_NAME": "HULIANWANG DIGUI 13J", "OBJECT_ID": "2025-258J", "EPOCH": "2025-12-02T14:15:06.892128", "MEAN_MOTION": 14.23472617, "ECCENTRICITY": 0.00114332, "INCLINATION": 50.0026, "RA_OF_ASC_NODE": 304.6152, "ARG_OF_PERICENTER": 331.2582, "MEAN_ANOMALY": 28.77, "EPHEMERIS_TYPE": 0, "CLASSIFICATION_TYPE": "U", "NORAD_CAT_ID": 66420, "ELEMENT_SET_NO": 999, "REV_AT_EPOCH": 320, "BSTAR": 0.00013743568, "MEAN_MOTION_DOT": 1.55e-06, "MEAN_MOTION_DDOT": 0}, "tle": {"line1": "1 66420U 25258J   25336.59382977  .00000155  00000+0  13744-3 0  9991", "line2": "2 66420  50.0026 304.6152 0011433 331.2582  28.7700 14.23472617  3206"}}, "geometry": {"type": "Point", "coordinates": [-75.86506855584577, -19.753484506900026]}}, {"type": "Feature", "properties": {"norad_id": 66421, "name": "CZ-12 R/B", "group": "last-30-days", "lat": -25.115002528863965, "lon": -84.23371630291945, "alt_km": 770.2272814634789, "timestamp": "2025-12-03T06:58:42.031681+00:00", "meta": {"OBJECT_NAME": "CZ-12 R/B", "OBJECT_ID": "2025-258K", "EPOCH": "2025-12-02T16:10:10.673760", "MEAN_MOTION": 14.42315918, "ECCENTRICITY": 0.00645723, "INCLINATION": 49.9959, "RA_OF_ASC_NODE": 301.6261, "ARG_OF_PERICENTER": 213.2283, "MEAN_ANOMALY": 146.4576, "EPHEMERIS_TYPE": 0, "CLASSIFICATION_TYPE": "U", "NORAD_CAT_ID": 66421, "ELEMENT_SET_NO": 999, "REV_AT_EPOCH": 326, "BSTAR": 2.8251275e-05, "MEAN_MOTION_DOT": -7.5e-07, "MEAN_MOTION_DDOT": 0}, "tle": {"line1": "1 66421U 25258K   25336.67373465 -.00000075  00000+0  28251-4 0  9995", "line2": "2 66421  49.9959 301.6261 0064572 213.2283 146.4576 14.42315918  3262"}}, "geometry": {"type": "Point", "coordinates": [-84.23371630291945, -25.115002528863965]}}, {"type": "Feature", "properties": {"norad_id": 66422, "name": "STARLINK-35617", "group": "last-30-days", "lat": 5.350822290931114, "lon": 108.38188270793032, "alt_km": 419.77165351401345, "timestamp": "2025-12-03T06:58:42.031693+00:00", "meta": {"OBJECT_NAME": "STARLINK-35617", "OBJECT_ID": "2025-259A", "EPOCH": "2025-12-02T20:00:03.000384", "MEAN_MOTION": 15.50636561, "ECCENTRICITY": 0.0001563, "INCLINATION": 42.9999, "RA_OF_ASC_NODE": 105.2853, "ARG_OF_PERICENTER": 272.7993, "MEAN_ANOMALY": 60.4266, "EPHEMERIS_TYPE": 0, "CLASSIFICATION_TYPE": "U", "NORAD_CAT_ID": 66422, "ELEMENT_SET_NO": 999, "REV_AT_EPOCH": 468, "BSTAR": -0.0388, "MEAN_MOTION_DOT": -0.02033639, "MEAN_MOTION_DDOT": 0}, "tle": {"line1": "1 66422U 25259A   25336.83336806 -.02033639  00000+0 -38800-1 0  9996", "line2": "2 66422  42.9999 105.2853 0001563 272.7993  60.4266 15.50636561  4682"}}, "geometry": {"type": "Point", "coordinates": [108.38188270793032, 5.350822290931114]}}, {"type": "Feature", "properties": {"norad_id": 66423, "name": "STARLINK-35618", "group": "last-30-days", "lat": 7.635180917024198, "lon": 110.87570181081423, "alt_km": 414.6897833313187, "timestamp": "2025-12-03T06:58:42.031703+00:00", "meta": {"OBJECT_NAME": "STARLINK-35618", "OBJECT_ID": "2025-259B", "EPOCH": "2025-12-02T20:00:03.000384", "MEAN_MOTION": 15.50825169, "ECCENTRICITY": 0.0001834, "INCLINATION": 42.9998, "RA_OF_ASC_NODE": 105.2804, "ARG_OF_PERICENTER": 278.1153, "MEAN_ANOMALY": 56.9667, "EPHEMERIS_TYPE": 0, "CLASSIFICATION_TYPE": "U", "NORAD_CAT_ID": 66423, "ELEMENT_SET_NO": 999, "REV_AT_EPOCH": 468, "BSTAR": -0.010669, "MEAN_MOTION_DOT": -0.00586659, "MEAN_MOTION_DDOT": 0}, "tle": {"line1": "1 66423U 25259B   25336.83336806 -.00586659  00000+0 -10669-1 0  9993", "line2": "2 66423  42.9998 105.2804 0001834 278.1153  56.9667 15.50825169  4686"}}, "geometry": {"type": "Point", "coordinates": [110.87570181081423, 7.635180917024198]}}, {"type": "Feature", "properties": {"norad_id": 66424, "name": "STARLINK-35588", "group": "last-30-days", "lat": 9.013759426283306, "lon": 112.40145271957016, "alt_km": 413.5957057280293, "timestamp": "2025-12-03T06:58:42.031713+00:00", "meta": {"OBJECT_NAME": "STARLINK-35588", "OBJECT_ID": "2025-259C", "EPOCH": "2025-12-02T20:00:03.000384", "MEAN_MOTION": 15.50507252, "ECCENTRICITY": 0.0001162, "INCLINATION": 43, "RA_OF_ASC_NODE": 105.2761, "ARG_OF_PERICENTER": 270.7209, "MEAN_ANOMALY": 66.3833, "EPHEMERIS_TYPE": 0, "CLASSIFICATION_TYPE": "U", "NORAD_CAT_ID": 66424, "ELEMENT_SET_NO": 999, "REV_AT_EPOCH": 468, "BSTAR": 0.0019306, "MEAN_MOTION_DOT": 0.00114291, "MEAN_MOTION_DDOT": 0}, "tle": {"line1": "1 66424U 25259C   25336.83336806  .00114291  00000+0  19306-2 0  9999", "line2": "2 66424  43.0000 105.2761 0001162 270.7209  66.3833 15.50507252  4689"}}, "geometry": {"type": "Point", "coordinates": [112.40145271957016, 9.013759426283306]}}]}